#aV2019  4  3  0  0  0.00000000     288 DD+AD WGS84 FIT  NGA
## 2047 259200.00000000   300.00000000 58576 0.0000000000000
+   31     1  2  3  5  6  7  8  9 10 11 12 13 14 15 16 17 18
+         19 20 21 22 23 24 25 26 27 28 29 30 31 32  0  0  0
+          0  0  0  0  0  0  0  0  0  0  0  0  0  0  0  0  0
+          0  0  0  0  0  0  0  0  0  0  0  0  0  0  0  0  0
+          0  0  0  0  0  0  0  0  0  0  0  0  0  0  0  0  0
++         2  2  2  2  2  2  2  2  2  2  2  2  2  2  2  2  2
++         2  2  2  2  2  2  2  2  2  2  2  2  2  2  0  0  0
++         0  0  0  0  0  0  0  0  0  0  0  0  0  0  0  0  0
++         0  0  0  0  0  0  0  0  0  0  0  0  0  0  0  0  0
++         0  0  0  0  0  0  0  0  0  0  0  0  0  0  0  0  0
%c cc cc ccc ccc cccc cccc cccc cccc ccccc ccccc ccccc ccccc
%c cc cc ccc ccc cccc cccc cccc cccc ccccc ccccc ccccc ccccc
%f  0.0000000  0.000000000  0.00000000000  0.000000000000000
%f  0.0000000  0.000000000  0.00000000000  0.000000000000000
%i    0    0    0    0      0      0      0      0         0
%i    0    0    0    0      0      0      0      0         0
/*      NGA, ST. LOUIS,MO.                                  
/*   EPHEMERIS COMPUTED FROM 2 DAYS OF DATA                 
/*   EPOCHA v3 SMOOTHER                                     
/*   G1762 IERS2010 SATAF SATAPC                            
*  2019  4  3 19 35  0.00000000
P  1  13024.574104 -22247.895033  -5813.289862   -194.162799                    
V  1   6518.148073  -3993.625531  31119.753952     -0.079308                    
P  2 -19512.400496  10434.190980 -13963.825442   -180.039769                    
V  2   8763.162287 -16891.576831 -24006.798825     -0.094870                    
P  3   9478.561915 -13294.195103 -20966.737173    187.799233                    
V  3  26115.065538   4894.480200   8793.194885      0.005989                    
P  5 -24981.818546   3029.899882   8693.308465      1.165073                    
V  5 -10707.643162  -4194.340715 -28713.635418     -0.000161                    
P  6 -16185.948883  -2456.456893 -20873.103885    239.608794                    
V  6  16029.807490 -21198.475598  -9880.167816     -0.091981                    
P  7   1304.538518 -20365.501971  16991.258109      2.215244                    
V  7  15202.400574 -15064.427866 -19973.136910     -0.073714                    
P  8   9374.789910 -14139.227678  20422.773475   -138.571353                    
V  8  10597.443981  23620.824585  11708.668555     -0.014267                    
P  9  -7640.380117 -25221.869600  -3302.022388    434.816039                    
V  9   4368.519361   2709.341106 -31219.883426     -0.062063                    
P 10  21239.782190  11345.756588  11483.361302     81.827697                    
V 10 -14583.053980    -16.073712  26939.115875     -0.092692                    
P 11   9107.922946 -24679.374884   3964.600123   -633.282926                    
V 11   2769.956718   6506.302097  29864.012512      0.070357                    
P 12 -11071.735604  11945.847105 -21152.172543    254.452311                    
V 12 -25552.069382  -6468.907946   9994.774128     -0.033237                    
P 13 -14045.345016   5466.759104  21754.417709    -69.229599                    
V 13  -7011.789612 -26976.872952   2279.099771      0.014899                    
P 14  16173.612094  11362.486952 -17516.117584    -85.885446                    
V 14   4973.841810  22304.802635  18548.972627      0.014878                    
P 15  -7660.777168  16477.690703  18984.937072   -320.261216                    
V 15 -12823.616907 -21429.000794  13633.989471      0.019551                    
P 16  24585.635266  -1069.176308  10361.315160    -30.044916                    
V 16  12499.641762   4677.112463 -28240.838755     -0.027268                    
P 17 -14097.188500 -19418.280893 -11076.925029     33.484657                    
V 17  -2804.626728 -14467.140186  27827.296395      0.060387                    
P 18  17338.234618 -19626.638668   3471.984109     40.827951                    
V 18   -375.765787   5940.686404  31265.282320      0.035592                    
P 19 -15787.405440 -11711.413273 -18113.714816   -334.838818                    
V 19  -4801.687078 -21900.129210  18741.035361      0.043742                    
P 20  13299.773866  14027.379552  18170.021356    523.670086                    
V 20 -23393.164754   1082.402389  16048.511347      0.003350                    
P 21   3998.696348  18503.459624  19490.872283   -219.619849                    
V 21 -14425.338321  18039.923852 -14653.169290      0.075536                    
P 22  17246.237724 -11066.446817 -16624.351406   -676.940342                    
V 22  21410.597641   4320.597721  19125.115827     -0.071619                    
P 23   1152.472140 -22586.903016 -13265.454921   -191.595345                    
V 23   9435.456464  15135.968560 -24766.033727      0.014605                    
P 24 -14503.522370  21988.848517  -1607.308612    -64.268837                    
V 24  -4167.544645   -696.169311  31385.012934     -0.004675                    
P 25   2726.095763  15452.118099 -21672.365828   -741.312591                    
V 25 -26674.618247  -3909.021370  -5949.335393     -0.045882                    
P 26  26406.487531   3642.618249   -251.491009    166.534710                    
V 26   -677.243517   2885.580127 -31439.745713      0.099870                    
P 27  14834.741117  -2359.256334  21829.124609   -100.336224                    
V 27   9999.715438  26017.104430  -3674.689971     -0.084091                    
P 28 -19144.231831 -13634.380498  12885.074578    767.136192                    
V 28  15324.277387   2138.081381  26370.476992      0.004850                    
P 29   2340.573543  25208.375056  -8063.755840    234.038583                    
V 29  -4847.403922  -9138.914803 -30081.923657     -0.090021                    
P 30  -8931.825749 -13244.206300  21214.760088    -80.044488                    
V 30  18298.112461 -19862.470942  -4881.588693     -0.067670                    
P 31  17375.724897   1373.836414 -20161.136612     47.577010                    
V 31 -15891.814796  19939.089277 -11900.769099     -0.026377                    
P 32  16474.950815  15997.125964 -13396.823082   -149.612180                    
V 32   4191.326181  16683.417668  24870.758741      0.180287                    
EOF
